NORAD_CAT_ID,OBJECT_NAME,OBJECT_TYPE,EPOCH,MEAN_MOTION,ECCENTRICITY,INCLINATION,RA_OF_ASC_NODE,ARG_OF_PERICENTER,MEAN_ANOMALY,BSTAR,MEAN_MOTION_DOT,MEAN_MOTION_DDOT,TLE_LINE0,TLE_LINE1,TLE_LINE2,SEMIMAJOR_AXIS,PERIOD,APOGEE,PERIGEE,DECAYED
55771.0,STARLINK-5591,PAYLOAD,2023-09-14 13:20:16,14.98310888,0.0003033,70.0021,351.6437,268.5107,91.5704,-0.00022052,-2.722e-05,0.0,0 STARLINK-5591,1 55771U 23028AG  23257.55574091 -.00002722  00000-0 -22052-3 0  9994,2 55771  70.0021 351.6437 0003033 268.5107  91.5704 14.98310888 30654,6950.252,96.108,574.225,570.009,0.0
55771.0,STARLINK-5591,PAYLOAD,2023-09-14 16:32:32,14.98313099,0.0003003,70.0022,351.3072,268.4209,91.6606,-0.00018734,-2.327e-05,0.0,0 STARLINK-5591,1 55771U 23028AG  23257.68925996 -.00002327  00000-0 -18734-3 0  9995,2 55771  70.0022 351.3072 0003003 268.4209  91.6606 14.98313099 30677,6950.245,96.108,574.197,570.023,0.0
55771.0,STARLINK-5591,PAYLOAD,2023-09-15 10:10:00,14.98325248,0.0003317,70.0015,349.4541,275.6373,84.4408,-0.00011258,-1.436e-05,0.0,0 STARLINK-5591,1 55771U 23028AG  23258.42361446 -.00001436  00000-0 -11258-3 0  9996,2 55771  70.0015 349.4541 0003317 275.6373  84.4408 14.98325248 30789,6950.208,96.107,574.378,569.767,0.0
55771.0,STARLINK-5591,PAYLOAD,2023-09-15 13:22:16,14.98325955,0.0002882,70.0023,349.1175,273.2789,86.804,-7.692e-05,-1.011e-05,0.0,0 STARLINK-5591,1 55771U 23028AG  23258.55713360 -.00001011  00000-0 -76920-4 0  9993,2 55771  70.0023 349.1175 0002882 273.2789  86.8040 14.98325955 30805,6950.205,96.107,574.073,570.067,0.0
55771.0,STARLINK-5591,PAYLOAD,2023-09-15 22:59:03,14.98349432,0.0003312,70.0018,348.1084,271.0451,89.0329,-0.00022133,-2.734e-05,0.0,0 STARLINK-5591,1 55771U 23028AG  23258.95768041 -.00002734  00000-0 -22133-3 0  9992,2 55771  70.0018 348.1084 0003312 271.0451  89.0329 14.98349432 30865,6950.133,96.106,574.3,569.696,0.0
55771.0,STARLINK-5591,PAYLOAD,2023-09-16 10:12:00,14.98325961,0.0003191,70.0018,346.9309,268.0583,92.021,0.0003222,3.753e-05,0.0,0 STARLINK-5591,1 55771U 23028AG  23259.42500306  .00003753  00000-0  32220-3 0  9991,2 55771  70.0018 346.9309 0003191 268.0583  92.0210 14.98325961 30930,6950.205,96.107,574.288,569.853,0.0
55771.0,STARLINK-5591,PAYLOAD,2023-09-16 13:24:15,14.98334271,0.0002796,70.0021,346.5939,267.189,92.8949,0.00041544,4.868e-05,0.0,0 STARLINK-5591,1 55771U 23028AG  23259.55851645  .00004868  00000-0  41544-3 0  9997,2 55771  70.0021 346.5939 0002796 267.1890  92.8949 14.98334271 30953,6950.18,96.107,573.988,570.101,0.0
55771.0,STARLINK-5591,PAYLOAD,2023-09-16 23:01:04,14.98347108,0.000273,70.0042,345.5844,263.4977,96.5871,-0.00012498,-1.584e-05,0.0,0 STARLINK-5591,1 55771U 23028AG  23259.95908074 -.00001584  00000-0 -12498-3 0  9990,2 55771  70.0042 345.5844 0002730 263.4977  96.5871 14.98347108 31019,6950.14,96.106,573.902,570.108,0.0
55771.0,STARLINK-5591,PAYLOAD,2023-09-17 13:26:17,14.98330496,0.0002798,70.0027,344.0709,259.7021,100.3822,2.013e-05,1.47e-06,0.0,0 STARLINK-5591,1 55771U 23028AG  23260.55992768  .00000147  00000-0  20130-4 0  9996,2 55771  70.0027 344.0709 0002798 259.7021 100.3822 14.98330496 31100,6950.191,96.107,574.001,570.112,0.0
55771.0,STARLINK-5591,PAYLOAD,2023-09-18 10:16:02,14.98334813,0.0003201,70.0016,341.8818,270.6713,89.4079,-0.00010689,-1.368e-05,0.0,0 STARLINK-5591,1 55771U 23028AG  23261.42780445 -.00001368  00000-0 -10689-3 0  9995,2 55771  70.0016 341.8818 0003201 270.6713  89.4079 14.98334813 31236,6950.178,96.107,574.268,569.818,0.0
55771.0,STARLINK-5591,PAYLOAD,2023-09-18 13:28:18,14.98336207,0.0002784,70.0027,341.5467,256.9237,103.1611,-8.1852e-05,-1.07e-05,0.0,0 STARLINK-5591,1 55771U 23028AG  23261.56132217 -.00001070  00000-0 -81852-4 0  9999,2 55771  70.0027 341.5467 0002784 256.9237 103.1611 14.98336207 31255,6950.174,96.107,573.974,570.104,0.0
55771.0,STARLINK-5591,PAYLOAD,2023-09-18 15:04:26,14.98337331,0.0002912,70.0023,341.3779,261.4414,98.6415,-7.7395e-05,-1.016e-05,0.0,0 STARLINK-5591,1 55771U 23028AG  23261.62808098 -.00001016  00000-0 -77395-4 0  9990,2 55771  70.0023 341.3779 0002912 261.4414  98.6415 14.98337331 31266,6950.17,96.107,574.059,570.011,0.0
55771.0,STARLINK-5591,PAYLOAD,2023-09-19 10:18:02,14.98335813,0.000319,70.0019,339.356,273.2864,86.793,8.8641e-05,9.65e-06,0.0,0 STARLINK-5591,1 55771U 23028AG  23262.42919369  .00000965  00000-0  88641-4 0  9999,2 55771  70.0019 339.3560 0003190 273.2864  86.7930 14.98335813 31381,6950.175,96.107,574.257,569.823,0.0
55771.0,STARLINK-5591,PAYLOAD,2023-09-19 15:06:25,14.98343793,0.0003035,70.0016,338.851,273.3855,86.6957,0.00014291,1.613e-05,0.0,0 STARLINK-5591,1 55771U 23028AG  23262.62946592  .00001613  00000-0  14291-3 0  9999,2 55771  70.0016 338.8510 0003035 273.3855  86.6957 14.98343793 31414,6950.15,96.106,574.125,569.906,0.0
55771.0,STARLINK-5591,PAYLOAD,2023-09-20 08:43:56,14.98319677,0.0003098,70.0015,337.0008,266.4138,93.6667,-8.3395e-05,-1.088e-05,0.0,0 STARLINK-5591,1 55771U 23028AG  23263.36384672 -.00001088  00000-0 -83395-4 0  9996,2 55771  70.0015 337.0008 0003098 266.4138  93.6667 14.98319677 31524,6950.225,96.108,574.243,569.937,0.0
55771.0,STARLINK-5591,PAYLOAD,2023-09-20 13:32:20,14.98320622,0.000323,70.001,336.4954,265.8168,94.2622,-0.00013524,-1.706e-05,0.0,0 STARLINK-5591,1 55771U 23028AG  23263.56412848 -.00001706  00000-0 -13524-3 0  9998,2 55771  70.0010 336.4954 0003230 265.8168  94.2622 14.98320622 31559,6950.222,96.108,574.332,569.842,0.0
55771.0,STARLINK-5591,PAYLOAD,2023-09-20 15:08:28,14.98320213,0.0003224,70.0011,336.3273,264.896,95.1831,-0.0001303,-1.647e-05,0.0,0 STARLINK-5591,1 55771U 23028AG  23263.63088883 -.00001647  00000-0 -13030-3 0  9990,2 55771  70.0011 336.3273 0003224 264.8960  95.1831 14.98320213 31564,6950.223,96.108,574.329,569.847,0.0
55771.0,STARLINK-5591,PAYLOAD,2023-09-21 10:22:03,14.98344514,0.0003141,70.0017,334.3074,282.4869,77.5939,8.508e-05,9.23e-06,0.0,0 STARLINK-5591,1 55771U 23028AG  23264.43199072  .00000923  00000-0  85080-4 0  9991,2 55771  70.0017 334.3074 0003141 282.4869  77.5939 14.98344514 31685,6950.148,96.106,574.196,569.83,0.0
55771.0,STARLINK-5591,PAYLOAD,2023-09-21 13:34:20,14.98338034,0.0002944,70.0017,333.9708,264.5649,95.5174,7.6263e-07,-8.4e-07,0.0,0 STARLINK-5591,1 55771U 23028AG  23264.56551459 -.00000084  00000-0  76263-6 0  9990,2 55771  70.0017 333.9708 0002944 264.5649  95.5174 14.98338034 31705,6950.168,96.106,574.079,569.987,0.0
55771.0,STARLINK-5591,PAYLOAD,2023-09-21 15:10:28,14.98339497,0.0003017,70.0015,333.8018,268.4407,91.6407,1.6026e-05,9.8e-07,0.0,0 STARLINK-5591,1 55771U 23028AG  23264.63227302  .00000098  00000-0  16026-4 0  9998,2 55771  70.0015 333.8018 0003017 268.4407  91.6407 14.98339497 31714,6950.164,96.106,574.125,569.932,0.0
55771.0,STARLINK-5591,PAYLOAD,2023-09-21 21:35:00,14.98332701,0.000355,70.0016,333.1281,268.5842,91.491,-0.00012575,-1.593e-05,0.0,0 STARLINK-5591,1 55771U 23028AG  23264.89931679 -.00001593  00000-0 -12575-3 0  9992,2 55771  70.0016 333.1281 0003550 268.5842  91.4910 14.98332701 31758,6950.185,96.107,574.517,569.582,0.0
55771.0,STARLINK-5591,PAYLOAD,2023-09-22 13:36:21,14.9832781,0.0003275,70.0007,331.4449,267.5494,92.529,0.00014971,1.694e-05,0.0,0 STARLINK-5591,1 55771U 23028AG  23265.56691659  .00001694  00000-0  14971-3 0  9990,2 55771  70.0007 331.4449 0003275 267.5494  92.5290 14.98327810 31850,6950.2,96.107,574.341,569.788,0.0
55771.0,STARLINK-5591,PAYLOAD,2023-09-22 21:37:01,14.98344891,0.0003245,70.0011,330.6037,268.5565,91.5222,-0.00018713,-2.326e-05,0.0,0 STARLINK-5591,1 55771U 23028AG  23265.90071312 -.00002326  00000-0 -18713-3 0  9999,2 55771  70.0011 330.6037 0003245 268.5565  91.5222 14.98344891 31904,6950.147,96.106,574.267,569.757,0.0
55771.0,STARLINK-5591,PAYLOAD,2023-09-23 12:02:14,14.98339235,0.0002942,70.0011,329.09,258.8156,101.2673,-0.0001371,-1.729e-05,0.0,0 STARLINK-5591,1 55771U 23028AG  23266.50155610 -.00001729  00000-0 -13710-3 0  9998,2 55771  70.0011 329.0900 0002942 258.8156 101.2673 14.98339235 31990,6950.164,96.106,574.074,569.985,0.0
55771.0,STARLINK-5591,PAYLOAD,2023-09-23 13:38:22,14.98341778,0.0002946,70.0011,328.9219,258.8153,101.2675,-0.00016589,-2.072e-05,0.0,0 STARLINK-5591,1 55771U 23028AG  23266.56831474 -.00002072  00000-0 -16589-3 0  9992,2 55771  70.0011 328.9219 0002946 258.8153 101.2675 14.98341778 32002,6950.156,96.106,574.069,569.974,0.0
55771.0,STARLINK-5591,PAYLOAD,2023-09-24 13:40:23,14.98331579,0.0003037,70.001,326.3954,268.8131,91.268,5.2936e-05,5.39e-06,0.0,0 STARLINK-5591,1 55771U 23028AG  23267.56971453  .00000539  00000-0  52936-4 0  9996,2 55771  70.0010 326.3954 0003037 268.8131  91.2680 14.98331579 32156,6950.188,96.107,574.164,569.942,0.0
55771.0,STARLINK-5591,PAYLOAD,2023-09-25 13:42:24,14.98319654,0.000305,70.0007,323.8716,268.1113,91.9697,0.00020828,2.392e-05,0.0,0 STARLINK-5591,1 55771U 23028AG  23268.57111847  .00002392  00000-0  20828-3 0  9994,2 55771  70.0007 323.8716 0003050 268.1113  91.9697 14.98319654 32300,6950.225,96.108,574.21,569.97,0.0
55771.0,STARLINK-5591,PAYLOAD,2023-09-26 02:31:28,14.98330433,0.000299,70.0005,322.525,270.016,90.0656,6.6455e-06,-1.4e-07,0.0,0 STARLINK-5591,1 55771U 23028AG  23269.10519610 -.00000014  00000-0  66455-5 0  9992,2 55771  70.0005 322.5250 0002990 270.0160  90.0656 14.98330433 32384,6950.192,96.107,574.135,569.978,0.0
55771.0,STARLINK-5591,PAYLOAD,2023-09-26 13:44:26,14.98272732,0.0002586,70.0005,321.3467,268.0338,92.0525,0.0010676,0.00012649,0.0,0 STARLINK-5591,1 55771U 23028AG  23269.57252685  .00012649  00000-0  10676-2 0  9996,2 55771  70.0005 321.3467 0002586 268.0338  92.0525 14.98272732 32458,6950.37,96.111,574.032,570.438,0.0
55771.0,STARLINK-5591,PAYLOAD,2023-09-27 08:58:02,14.98330144,0.000298,70.0002,319.3261,270.8071,89.2747,2.119e-05,1.6e-06,0.0,0 STARLINK-5591,1 55771U 23028AG  23270.37363519  .00000160  00000-0  21190-4 0  9995,2 55771  70.0002 319.3261 0002980 270.8071  89.2747 14.98330144 32576,6950.192,96.107,574.129,569.986,0.0
